NORAD_CAT_ID,OBJECT_NAME,OBJECT_TYPE,EPOCH,MEAN_MOTION,ECCENTRICITY,INCLINATION,RA_OF_ASC_NODE,ARG_OF_PERICENTER,MEAN_ANOMALY,BSTAR,MEAN_MOTION_DOT,MEAN_MOTION_DDOT,TLE_LINE0,TLE_LINE1,TLE_LINE2,SEMIMAJOR_AXIS,PERIOD,APOGEE,PERIGEE,DECAYED
53422.0,STARLINK-4546,PAYLOAD,2023-11-13 17:16:40,15.08848305,0.0001472,53.2175,316.317,81.2454,278.8705,0.00013468,1.857e-05,0.0,0 STARLINK-4546,1 53422U 22097AL  23317.71990844  .00001857  00000-0  13468-3 0  9990,2 53422  53.2175 316.3170 0001472  81.2454 278.8705 15.08848305 70309,6917.855,95.437,540.738,538.702,0.0
53422.0,STARLINK-4546,PAYLOAD,2023-11-14 09:10:31,15.08844737,0.000144,53.2173,313.3442,84.1559,275.9597,5.789e-05,6.34e-06,0.0,0 STARLINK-4546,1 53422U 22097AL  23318.38230986  .00000634  00000-0  57890-4 0  9998,2 53422  53.2173 313.3442 0001440  84.1559 275.9597 15.08844737 70402,6917.866,95.437,540.727,538.735,0.0
53422.0,STARLINK-4546,PAYLOAD,2023-11-14 17:07:27,15.0884142,0.0001444,53.2168,311.857,87.5407,272.575,1.5643e-05,-3.9e-07,0.0,0 STARLINK-4546,1 53422U 22097AL  23318.71351181 -.00000039  00000-0  15643-4 0  9996,2 53422  53.2168 311.8570 0001444  87.5407 272.5750 15.08841420 70932,6917.876,95.437,540.74,538.742,0.0
53422.0,STARLINK-4546,PAYLOAD,2023-11-15 09:01:18,15.08846267,0.0001541,53.2171,308.8813,92.5592,267.5577,0.00010832,1.437e-05,0.0,0 STARLINK-4546,1 53422U 22097AL  23319.37591030  .00001437  00000-0  10832-3 0  9994,2 53422  53.2171 308.8813 0001541  92.5592 267.5577 15.08846267 71038,6917.861,95.437,540.792,538.66,0.0
53422.0,STARLINK-4546,PAYLOAD,2023-11-15 16:58:14,15.08835643,0.0001653,53.2187,307.393,96.2898,263.8282,1.1524e-06,-2.7e-06,0.0,0 STARLINK-4546,1 53422U 22097AL  23319.70711642 -.00000270  00000-0  11524-5 0  9990,2 53422  53.2187 307.3930 0001653  96.2898 263.8282 15.08835643 70603,6917.894,95.438,540.902,538.615,0.0
53422.0,STARLINK-4546,PAYLOAD,2023-11-16 08:52:06,15.08840312,0.0001582,53.2179,304.4191,105.8172,254.2994,0.00010399,1.367e-05,0.0,0 STARLINK-4546,1 53422U 22097AL  23320.36951507  .00001367  00000-0  10399-3 0  9994,2 53422  53.2179 304.4191 0001582 105.8172 254.2994 15.08840312 71181,6917.879,95.438,540.839,538.65,0.0
53422.0,STARLINK-4546,PAYLOAD,2023-11-17 03:56:43,15.08841854,0.0001579,53.2176,300.8518,97.563,262.5542,0.00011696,1.574e-05,0.0,0 STARLINK-4546,1 53422U 22097AL  23321.16439568  .00001574  00000-0  11696-3 0  9992,2 53422  53.2176 300.8518 0001579  97.5630 262.5542 15.08841854 70826,6917.875,95.437,540.832,538.647,0.0
53422.0,STARLINK-4546,PAYLOAD,2023-11-17 08:42:52,15.08845827,0.000148,53.2186,299.9608,104.0624,256.0533,0.00010032,1.309e-05,0.0,0 STARLINK-4546,1 53422U 22097AL  23321.36311320  .00001309  00000-0  10032-3 0  9998,2 53422  53.2186 299.9608 0001480 104.0624 256.0533 15.08845827 71332,6917.863,95.437,540.751,538.704,0.0
53422.0,STARLINK-4546,PAYLOAD,2023-11-17 23:01:21,15.08832242,0.0001201,53.2192,297.2867,85.2356,274.8773,5.644e-07,-2.79e-06,0.0,0 STARLINK-4546,1 53422U 22097AL  23321.95928192 -.00000279  00000-0  56440-6 0  9996,2 53422  53.2192 297.2867 0001201  85.2356 274.8773 15.08832242 71421,6917.904,95.438,540.6,538.938,0.0
53422.0,STARLINK-4546,PAYLOAD,2023-11-18 03:47:31,15.08836167,0.000162,53.2188,296.3922,108.057,252.0599,6.3719e-05,7.26e-06,0.0,0 STARLINK-4546,1 53422U 22097AL  23322.15800174  .00000726  00000-0  63719-4 0  9999,2 53422  53.2188 296.3922 0001620 108.0570 252.0599 15.08836167 70978,6917.892,95.438,540.878,538.636,0.0
53422.0,STARLINK-4546,PAYLOAD,2023-11-18 05:22:54,15.08839285,0.000137,53.2183,296.0977,101.8007,258.3139,4.3813e-05,4.09e-06,0.0,0 STARLINK-4546,1 53422U 22097AL  23322.22424106  .00000409  00000-0  43813-4 0  9995,2 53422  53.2183 296.0977 0001370 101.8007 258.3139 15.08839285 71466,6917.883,95.438,540.695,538.8,0.0
53422.0,STARLINK-4546,PAYLOAD,2023-11-18 14:55:12,15.08847293,0.0001479,53.2188,294.3143,108.4455,251.6698,-8.572e-05,-1.652e-05,0.0,0 STARLINK-4546,1 53422U 22097AL  23322.62167814 -.00001652  00000-0 -85720-4 0  9995,2 53422  53.2188 294.3143 0001479 108.4455 251.6698 15.08847293 71045,6917.858,95.437,540.746,538.7,0.0
53422.0,STARLINK-4546,PAYLOAD,2023-11-18 22:52:08,15.08841296,0.0001398,53.2184,292.8247,91.6179,268.4973,7.6394e-05,9.28e-06,0.0,0 STARLINK-4546,1 53422U 22097AL  23322.95288021  .00000928  00000-0  76394-4 0  9995,2 53422  53.2184 292.8247 0001398  91.6179 268.4973 15.08841296 71572,6917.876,95.437,540.709,538.774,0.0
53422.0,STARLINK-4546,PAYLOAD,2023-11-19 14:46:00,15.08841708,0.0001677,53.2191,289.8523,87.8705,272.2479,0.00020869,3.035e-05,0.0,0 STARLINK-4546,1 53422U 22097AL  23323.61527893  .00003035  00000-0  20869-3 0  9999,2 53422  53.2191 289.8523 0001677  87.8705 272.2479 15.08841708 71678,6917.875,95.437,540.9,538.58,0.0
53422.0,STARLINK-4546,PAYLOAD,2023-11-20 03:29:05,15.08835973,0.0001491,53.2184,287.4751,93.8082,266.3081,0.00010584,1.397e-05,0.0,0 STARLINK-4546,1 53422U 22097AL  23324.14520446  .00001397  00000-0  10584-3 0  9997,2 53422  53.2184 287.4751 0001491  93.8082 266.3081 15.08835973 71272,6917.893,95.438,540.789,538.726,0.0
53422.0,STARLINK-4546,PAYLOAD,2023-11-20 06:39:51,15.08841463,0.0001743,53.2187,286.8809,87.6915,272.4277,0.00010881,1.444e-05,0.0,0 STARLINK-4546,1 53422U 22097AL  23324.27767985  .00001444  00000-0  10881-3 0  9995,2 53422  53.2187 286.8809 0001743  87.6915 272.4277 15.08841463 71779,6917.876,95.437,540.947,538.535,0.0
53422.0,STARLINK-4546,PAYLOAD,2023-11-20 14:36:47,15.08840107,0.00016,53.219,285.3903,84.1186,275.9988,0.0001044,1.374e-05,0.0,0 STARLINK-4546,1 53422U 22097AL  23324.60888330  .00001374  00000-0  10440-3 0  9993,2 53422  53.2190 285.3903 0001600  84.1186 275.9988 15.08840107 71823,6917.88,95.438,540.852,538.638,0.0
53422.0,STARLINK-4546,PAYLOAD,2023-11-21 03:19:51,15.08848196,0.0001713,53.2182,283.0107,90.9848,269.134,9.1824e-05,1.174e-05,0.0,0 STARLINK-4546,1 53422U 22097AL  23325.13879531  .00001174  00000-0  91824-4 0  9999,2 53422  53.2182 283.0107 0001713  90.9848 269.1340 15.08848196 71429,6917.855,95.437,540.905,538.535,0.0
53422.0,STARLINK-4546,PAYLOAD,2023-11-21 06:30:38,15.08851663,0.0001703,53.2183,282.4162,91.2088,268.9099,0.00015481,2.177e-05,0.0,0 STARLINK-4546,1 53422U 22097AL  23325.27127371  .00002177  00000-0  15481-3 0  9990,2 53422  53.2183 282.4162 0001703  91.2088 268.9099 15.08851663 71929,6917.845,95.437,540.888,538.532,0.0
53422.0,STARLINK-4546,PAYLOAD,2023-11-22 03:10:39,15.08842841,0.0001612,53.2177,278.5476,96.6317,263.4859,0.00012486,1.7e-05,0.0,0 STARLINK-4546,1 53422U 22097AL  23326.13239822  .00001700  00000-0  12486-3 0  9994,2 53422  53.2177 278.5476 0001612  96.6317 263.4859 15.08842841 71572,6917.872,95.437,540.852,538.622,0.0
53422.0,STARLINK-4546,PAYLOAD,2023-11-22 06:21:25,15.08847459,0.0001599,53.2179,277.9523,98.8563,261.2611,0.00021908,3.201e-05,0.0,0 STARLINK-4546,1 53422U 22097AL  23326.26487642  .00003201  00000-0  21908-3 0  9990,2 53422  53.2179 277.9523 0001599  98.8563 261.2611 15.08847459 72079,6917.858,95.437,540.829,538.616,0.0
53422.0,STARLINK-4546,PAYLOAD,2023-11-23 03:01:26,15.08840065,0.0001704,53.2167,274.0913,86.8938,273.2249,8.4415e-05,1.056e-05,0.0,0 STARLINK-4546,1 53422U 22097AL  23327.12600132  .00001056  00000-0  84415-4 0  9996,2 53422  53.2167 274.0913 0001704  86.8938 273.2249 15.08840065 71725,6917.88,95.438,540.924,538.566,0.0
53422.0,STARLINK-4546,PAYLOAD,2023-11-23 06:12:12,15.08845839,0.0001736,53.2173,273.4905,106.8097,253.3085,0.00021725,3.172e-05,0.0,0 STARLINK-4546,1 53422U 22097AL  23327.25847767  .00003172  00000-0  21725-3 0  9992,2 53422  53.2173 273.4905 0001736 106.8097 253.3085 15.08845839 72227,6917.863,95.437,540.928,538.527,0.0
53422.0,STARLINK-4546,PAYLOAD,2023-11-24 02:52:13,15.08840623,0.0001614,53.2187,269.6168,115.5574,244.5585,0.0001323,1.818e-05,0.0,0 STARLINK-4546,1 53422U 22097AL  23328.11960285  .00001818  00000-0  13230-3 0  9996,2 53422  53.2187 269.6168 0001614 115.5574 244.5585 15.08840623 72359,6917.878,95.438,540.86,538.627,0.0
53422.0,STARLINK-4546,PAYLOAD,2023-11-24 20:21:28,15.08840249,0.0001493,53.2179,266.3602,89.8523,270.264,9.188e-05,1.175e-05,0.0,0 STARLINK-4546,1 53422U 22097AL  23328.84824889  .00001175  00000-0  91880-4 0  9999,2 53422  53.2179 266.3602 0001493  89.8523 270.2640 15.08840249 71989,6917.88,95.438,540.777,538.712,0.0
53422.0,STARLINK-4546,PAYLOAD,2023-11-25 05:53:47,15.08851614,0.0001534,53.2173,264.5737,86.828,273.2887,0.00036315,5.498e-05,0.0,0 STARLINK-4546,1 53422U 22097AL  23329.24568514  .00005498  00000-0  36315-3 0  9997,2 53422  53.2173 264.5737 0001534  86.8280 273.2887 15.08851614 72520,6917.845,95.437,540.771,538.649,0.0
53422.0,STARLINK-4546,PAYLOAD,2023-11-26 00:58:23,15.08868372,0.0001616,53.217,261.0041,103.538,256.5793,0.00062417,9.667e-05,0.0,0 STARLINK-4546,1 53422U 22097AL  23330.04055430  .00009667  00000-0  62417-3 0  9999,2 53422  53.2170 261.0041 0001616 103.5380 256.5793 15.08868372 72648,6917.794,95.436,540.777,538.541,0.0
53422.0,STARLINK-4546,PAYLOAD,2023-11-27 00:49:11,15.08828516,0.0001367,53.2172,256.5434,85.8809,274.2339,-0.00034003,-5.694e-05,0.0,0 STARLINK-4546,1 53422U 22097AL  23331.03416411 -.00005694  00000-0 -34003-3 0  9997,2 53422  53.2172 256.5434 0001367  85.8809 274.2339 15.08828516 72319,6917.915,95.438,540.726,538.835,0.0
53422.0,STARLINK-4546,PAYLOAD,2023-11-27 05:35:21,15.08825153,0.0001458,53.2169,255.6522,53.7086,306.4041,-0.00028631,-4.84e-05,0.0,0 STARLINK-4546,1 53422U 22097AL  23331.23288850 -.00004840  00000-0 -28631-3 0  9995,2 53422  53.2169 255.6522 0001458  53.7086 306.4041 15.08825153 72823,6917.926,95.438,540.799,538.782,0.0
53422.0,STARLINK-4546,PAYLOAD,2023-11-28 02:15:21,15.08848847,0.0001587,53.2171,251.7905,101.0619,259.0552,0.00029056,4.34e-05,0.0,0 STARLINK-4546,1 53422U 22097AL  23332.09400170  .00004340  00000-0  29056-3 0  9996,2 53422  53.2171 251.7905 0001587 101.0619 259.0552 15.08848847 72476,6917.853,95.437,540.816,538.62,0.0
